{"type":"FeatureCollection","features":[{"type":"Feature","id":"way/4264538","properties":{"id":"goescheneralpsee","name":"Göscheneralpsee","quelle":"© OpenStreetMap-Mitwirkende (ODbL)"},"geometry":{"type":"Polygon","coordinates":[[[8.4901153,46.6422096],[8.4908648,46.6421005],[8.4911687,46.6418534],[8.4914785,46.6417567],[8.4921841,46.6417819],[8.4932536,46.6418204],[8.4935041,46.6419049],[8.4936448,46.6421132],[8.4939123,46.6420441],[8.4944485,46.642141],[8.4952058,46.642137],[8.4959741,46.6424266],[8.4964036,46.6425451],[8.4971024,46.6428319],[8.4976692,46.6429962],[8.4983145,46.6432263],[8.4980209,46.6446377],[8.4978646,46.6454039],[8.4977851,46.6462236],[8.4977717,46.6469181],[8.4977051,46.646948],[8.4976425,46.646976],[8.4975537,46.6474889],[8.4974415,46.6475024],[8.4972061,46.6474381],[8.4967065,46.6473143],[8.4965182,46.6473061],[8.4963776,46.6472248],[8.496067,46.6472299],[8.496008,46.6472026],[8.4958747,46.6472045],[8.4956676,46.647235],[8.4953717,46.6472248],[8.4952534,46.6471537],[8.4948167,46.647228],[8.4947134,46.6472401],[8.4944028,46.6471994],[8.4941883,46.6472096],[8.494033,46.6471893],[8.493899,46.6472662],[8.4936409,46.6472401],[8.4933599,46.6473315],[8.4932119,46.6474229],[8.4932119,46.64756],[8.4930846,46.6476144],[8.4930651,46.6475297],[8.4929665,46.6475117],[8.492603,46.6476417],[8.4925121,46.6475455],[8.4923871,46.6474935],[8.4920766,46.6474649],[8.4918191,46.6475143],[8.4913664,46.6475962],[8.4912927,46.6475715],[8.4912132,46.6475507],[8.491126,46.6475689],[8.491073,46.6475949],[8.4910568,46.6476217],[8.4909518,46.6476339],[8.4908344,46.6476287],[8.4905959,46.6476053],[8.4904103,46.6476417],[8.4904947,46.6477061],[8.4902929,46.6476781],[8.4898901,46.6477126],[8.4895068,46.6477622],[8.4892938,46.6478239],[8.4889151,46.6478109],[8.4888062,46.6478532],[8.4885364,46.6478142],[8.4883045,46.6478304],[8.4879589,46.6478467],[8.4876985,46.6479117],[8.4874476,46.6479182],[8.4873624,46.6478987],[8.4871503,46.6479304],[8.4871077,46.6479336],[8.4870623,46.647937],[8.4868953,46.6479909],[8.4867715,46.6480033],[8.4862581,46.6479466],[8.4861411,46.6479994],[8.4859707,46.6479897],[8.4855399,46.6480384],[8.4854254,46.6480922],[8.4852654,46.6480904],[8.4852133,46.6481067],[8.4853435,46.6481928],[8.4850958,46.6483921],[8.4848938,46.6484487],[8.4846616,46.6484481],[8.4843523,46.6484182],[8.4840565,46.648469],[8.4835979,46.648469],[8.483502,46.6485598],[8.4831171,46.6486569],[8.4829544,46.6486518],[8.4827177,46.648667],[8.4824219,46.648601],[8.4823035,46.6485553],[8.4821303,46.6485828],[8.4820439,46.6486744],[8.4817488,46.6486772],[8.481194,46.6487584],[8.4809139,46.648776],[8.4805324,46.6487536],[8.4804167,46.6487295],[8.4803185,46.6486838],[8.4802204,46.6487006],[8.4800106,46.6487787],[8.4798943,46.6488643],[8.479733,46.6489268],[8.479552,46.6489666],[8.4793474,46.6489726],[8.4791674,46.6489514],[8.4790121,46.6488143],[8.4789009,46.6487532],[8.4787458,46.6487686],[8.478506,46.6487786],[8.4782676,46.6487343],[8.4780397,46.6486453],[8.4779065,46.6486043],[8.4778714,46.6486188],[8.477896,46.6486453],[8.4780642,46.6487439],[8.4781028,46.6488113],[8.4780993,46.6488739],[8.4780046,46.6489124],[8.4779275,46.6489629],[8.4776961,46.6490544],[8.4775489,46.6490977],[8.4774437,46.6491675],[8.4771878,46.649259],[8.4765988,46.649437],[8.4760378,46.6495429],[8.4755435,46.6496416],[8.4751684,46.649721],[8.4749685,46.6497258],[8.474639,46.6496994],[8.4742343,46.6496976],[8.4740757,46.6497316],[8.4738823,46.6498099],[8.4736691,46.6498984],[8.4733419,46.6500141],[8.4730791,46.6500345],[8.4728907,46.6501196],[8.4725535,46.6502694],[8.4720825,46.650477],[8.4717652,46.6505859],[8.4713983,46.650654],[8.4712843,46.6506812],[8.4712198,46.6506472],[8.4708926,46.6506574],[8.4707637,46.6506744],[8.4705059,46.6508514],[8.4702282,46.6510318],[8.4700348,46.6511373],[8.4699109,46.6511543],[8.4698018,46.6510998],[8.4697126,46.6510454],[8.4696283,46.6510454],[8.4695341,46.6509671],[8.4695273,46.650927],[8.4695192,46.6508786],[8.4695638,46.6507425],[8.4695688,46.6505961],[8.4694895,46.6504838],[8.4694795,46.6504157],[8.4695589,46.6501196],[8.4696283,46.6500379],[8.4698415,46.6499699],[8.4700299,46.6499563],[8.4701489,46.6498984],[8.4701728,46.6498515],[8.4701737,46.6497691],[8.4702084,46.6496534],[8.470139,46.6495921],[8.4700299,46.6495819],[8.4699357,46.649507],[8.4698563,46.6494798],[8.4697261,46.6495009],[8.4695353,46.6495245],[8.4693754,46.6494525],[8.4693159,46.649313],[8.4692267,46.649262],[8.4690928,46.6492041],[8.46883,46.6489114],[8.4687705,46.6487276],[8.4688102,46.6486289],[8.4690284,46.6484655],[8.4709234,46.646876],[8.4709518,46.6465923],[8.4715968,46.6460171],[8.4721473,46.6462054],[8.4730355,46.6461747],[8.4738375,46.6460237],[8.4738134,46.6455819],[8.4730165,46.6446592],[8.4728116,46.6442641],[8.4741402,46.6442207],[8.4755163,46.6439492],[8.4767026,46.643656],[8.4772277,46.6436114],[8.4779642,46.6435489],[8.4780945,46.6432868],[8.4795181,46.6430371],[8.4812738,46.6426679],[8.4821437,46.6427113],[8.4830137,46.6427873],[8.4834566,46.6426896],[8.4838045,46.6424941],[8.4847473,46.6424414],[8.4861469,46.6426274],[8.4869274,46.6427251],[8.4871956,46.6427671],[8.4873647,46.642555],[8.4877405,46.6423918],[8.4878799,46.6421898],[8.488591,46.6420327],[8.4891082,46.6419572],[8.4892704,46.641922],[8.489687,46.6421364],[8.4901153,46.6422096]]]}}]}