{"type":"FeatureCollection","features":[{"type":"Feature","id":1201,"properties":{"bfs":1201,"name":"Altdorf"},"geometry":{"type":"Polygon","coordinates":[[[8.668359258839661,46.897924621872306],[8.662740147032038,46.89664524768457],[8.66060488454514,46.89461330044521],[8.661054413489751,46.891452493628435],[8.655772448390586,46.88445356424843],[8.658132475349786,46.88174430126263],[8.656334359571348,46.880088640549076],[8.657458181932872,46.87662680451166],[8.644309460303035,46.8732402257794],[8.6337455301047,46.86488666490649],[8.62542924462942,46.87926081019231],[8.616438665737222,46.89551638810715],[8.62318159990637,46.894839072360696],[8.627452124880163,46.89822565109295],[8.6337455301047,46.89912873875489],[8.634644587993922,46.90274108940263],[8.64138752216307,46.90499880855747],[8.641837051107679,46.910191562613605],[8.648018074096065,46.909740018782635],[8.649254278693743,46.911019392970374],[8.656221977335194,46.91004104800328],[8.659818208892073,46.90161222982521],[8.668359258839661,46.897924621872306]]]}},{"type":"Feature","id":1202,"properties":{"bfs":1202,"name":"Andermatt"},"geometry":{"type":"Polygon","coordinates":[[[8.672854548285759,46.66033730947805],[8.662515382559732,46.65672495883031],[8.656671506279805,46.65183323399482],[8.659705826655921,46.64867242717805],[8.657458181932872,46.645210591140625],[8.658357239822092,46.64287761468063],[8.653187656959078,46.639265264032886],[8.652288599069859,46.63557765607998],[8.657570564169024,46.63264262117869],[8.659481062183616,46.627224095207076],[8.665212556227392,46.62300968611804],[8.670944050271167,46.62105299618385],[8.67746221996801,46.62105299618385],[8.678923189037993,46.61909630624965],[8.680721304816434,46.6067541082032],[8.678024131148774,46.60058300917997],[8.682519420594872,46.590799559509],[8.679822246927213,46.5804893087019],[8.667909729895051,46.57785530302125],[8.661054413489751,46.574845010814805],[8.65734579969672,46.569878028674154],[8.641837051107679,46.56536259036448],[8.632059796562414,46.567018251078025],[8.630486445256281,46.57492026811997],[8.627339742644011,46.577704788410934],[8.615989136792612,46.579510963734805],[8.611156700638055,46.585757320063195],[8.612392905235733,46.59569128434448],[8.592838396145204,46.612699435310944],[8.59126504483907,46.61766641745159],[8.585983079739904,46.624289060305784],[8.580925879113042,46.6263962648503],[8.578453469917688,46.631438504296106],[8.575194385069267,46.631212732380625],[8.561596134494817,46.637910632539985],[8.547773119448063,46.64069515283095],[8.552380791130314,46.64408173156321],[8.565529512760154,46.64618893610773],[8.570474331150862,46.65108066094321],[8.579352527806908,46.649500257534825],[8.587331666573732,46.651908491299984],[8.592388867200594,46.65010231597611],[8.601154681620486,46.650177573281276],[8.603627090815841,46.652360035130954],[8.621608248600236,46.65875690606966],[8.6313855031455,46.66650840850128],[8.639252259676173,46.66921767148709],[8.643073255705357,46.675539285120635],[8.645208518192254,46.67681865930838],[8.651164776708335,46.676442372782574],[8.656783888515957,46.673281565965794],[8.66375158715741,46.672453735609025],[8.667684965422747,46.67591557164644],[8.674765046300353,46.67809803349612],[8.674765046300353,46.672453735609025],[8.679147953510299,46.665755835449666],[8.672854548285759,46.66033730947805]]]}},{"type":"Feature","id":1203,"properties":{"bfs":1203,"name":"Attinghausen"},"geometry":{"type":"Polygon","coordinates":[[[8.492593441497203,46.773825325661306],[8.489446738884933,46.78255517306002],[8.479557102103517,46.790983991238086],[8.48292856918809,46.79534891493744],[8.482254275771176,46.79948806672132],[8.472926550170522,46.79685406104067],[8.466183616001373,46.7997138386368],[8.465846469292917,46.801444756655506],[8.473488461351284,46.80084269821422],[8.483490480368854,46.80513236460841],[8.484501920494225,46.809873574833574],[8.479332337631211,46.81484055697422],[8.48472668496653,46.82108691330261],[8.484501920494225,46.82831161459809],[8.48742385863419,46.83335385404391],[8.490008650065697,46.836890947386486],[8.505517398654737,46.84253524527358],[8.508102190086243,46.84674965436262],[8.515631799908459,46.84848057238133],[8.521700440660691,46.84787851394004],[8.531140548497499,46.8423094733581],[8.535860602415903,46.84170741491681],[8.541929243168136,46.842685759883906],[8.554178906908755,46.85051251962068],[8.561371370022513,46.84900737351746],[8.571036242331624,46.851566121892944],[8.580588732404586,46.8596186535452],[8.595535569812863,46.868047471723266],[8.606436646719652,46.878131950614886],[8.620372044002558,46.877605149478754],[8.62542924462942,46.87926081019231],[8.6337455301047,46.86488666490649],[8.636105557063903,46.862026887310364],[8.63228456103472,46.849082630822615],[8.628351182769382,46.844416677902615],[8.614415785486477,46.83922392384649],[8.607335704608872,46.83884763732068],[8.599468948078199,46.84178267222197],[8.591602191547526,46.83884763732068],[8.581038261349194,46.83779403504842],[8.569238126553186,46.840653812644554],[8.563619014745562,46.83922392384649],[8.557213227284873,46.8409548418652],[8.547885501684217,46.83771877774326],[8.552717937838773,46.83342911134906],[8.552268408894163,46.828838415734225],[8.54855979510113,46.82612915274842],[8.547773119448063,46.82025908294584],[8.543839741182728,46.81581890194132],[8.52799384588523,46.80377773311551],[8.529117668246755,46.79978909594196],[8.525071907745266,46.792037593510344],[8.525633818926028,46.78797369903163],[8.518553738048423,46.78187785731357],[8.514058448602324,46.77999642468453],[8.509226012447769,46.78089951234647],[8.50473072300167,46.77683561786776],[8.499336375666351,46.777588190919374],[8.492593441497203,46.773825325661306]]]}},{"type":"Feature","id":1205,"properties":{"bfs":1205,"name":"Bürglen"},"geometry":{"type":"Polygon","coordinates":[[[8.708929246090701,46.91846986618135],[8.71881888287212,46.91989975497941],[8.730169488723519,46.928855374293605],[8.73758671630958,46.931790409194896],[8.738598156434954,46.93359658451877],[8.745116326131797,46.93389761373941],[8.746464912965626,46.93653161942006],[8.750398291230962,46.935101730621994],[8.771975680572236,46.94255220383297],[8.77534714765681,46.9411223150349],[8.779842437102909,46.93404812834974],[8.79175495413507,46.93194092380522],[8.799284563957286,46.93811202282845],[8.811534227697905,46.94232643191748],[8.828054416412318,46.93660687672522],[8.83131350126074,46.931790409194896],[8.830639207843824,46.925092509035544],[8.828728709829232,46.923737877542635],[8.810522787572532,46.9144812290078],[8.809623729683313,46.91207299524263],[8.790855896245851,46.911696708716825],[8.78995683835663,46.90733178501747],[8.781191023936739,46.90356891975941],[8.779055761449841,46.898978224144564],[8.770627093738407,46.898376165703276],[8.76579465758385,46.8952153588865],[8.756691696455501,46.894161756614245],[8.74343059258951,46.8998813118065],[8.73578860053114,46.90101017138392],[8.729270430834298,46.904622522031666],[8.72522467033281,46.909740018782635],[8.725561817041267,46.9138791705665],[8.717133149329833,46.91365339865102],[8.717807442746746,46.888517458727144],[8.71376168224526,46.88069069899037],[8.708929246090701,46.879185552887144],[8.707243512548414,46.87482062918779],[8.702186311921555,46.87173507967617],[8.715896944732155,46.858038250136815],[8.717695060510595,46.85096406345165],[8.715559798023698,46.84885685890713],[8.691285235014764,46.852469209554876],[8.691734763959374,46.85525372984584],[8.688250914638648,46.859317624324554],[8.68476706531792,46.85909185240907],[8.679035571274145,46.8652629514323],[8.674877428536504,46.86458563568585],[8.668584023311967,46.86646706831488],[8.657233417460567,46.87376702691553],[8.637791290606192,46.86533820873746],[8.6337455301047,46.86488666490649],[8.644309460303035,46.8732402257794],[8.657458181932872,46.87662680451166],[8.656334359571348,46.880088640549076],[8.658132475349786,46.88174430126263],[8.655772448390586,46.88445356424843],[8.661054413489751,46.891452493628435],[8.66060488454514,46.89461330044521],[8.662740147032038,46.89664524768457],[8.668359258839661,46.897924621872306],[8.675326957481115,46.90356891975941],[8.679822246927213,46.911546194106506],[8.680047011399518,46.916814205467794],[8.683980389664855,46.91899666731747],[8.706007307950738,46.91591111780586],[8.708929246090701,46.91846986618135]]]}},{"type":"Feature","id":1206,"properties":{"bfs":1206,"name":"Erstfeld"},"geometry":{"type":"Polygon","coordinates":[[[8.518553738048423,46.78187785731357],[8.525633818926028,46.78797369903163],[8.525071907745266,46.792037593510344],[8.529117668246755,46.79978909594196],[8.52799384588523,46.80377773311551],[8.543839741182728,46.81581890194132],[8.547773119448063,46.82025908294584],[8.54855979510113,46.82612915274842],[8.552268408894163,46.828838415734225],[8.552717937838773,46.83342911134906],[8.547885501684217,46.83771877774326],[8.557213227284873,46.8409548418652],[8.563619014745562,46.83922392384649],[8.569238126553186,46.840653812644554],[8.581038261349194,46.83779403504842],[8.591602191547526,46.83884763732068],[8.599468948078199,46.84178267222197],[8.607335704608872,46.83884763732068],[8.614415785486477,46.83922392384649],[8.628351182769382,46.844416677902615],[8.63228456103472,46.849082630822615],[8.63913987744002,46.85051251962068],[8.64138752216307,46.84381461946133],[8.646781869498387,46.84614759592132],[8.651614305652943,46.843739362156164],[8.65779532864133,46.84343833293552],[8.658806768766702,46.84027752611875],[8.666223996352764,46.83756826313294],[8.681507980469501,46.83613837433487],[8.68420515413716,46.83448271362133],[8.683193714011788,46.831999222551],[8.679822246927213,46.83087036297358],[8.678248895621078,46.8240219482039],[8.671393579215778,46.82183948635422],[8.661616324670513,46.81160449285228],[8.66240300032358,46.80513236460841],[8.665662085172002,46.80061692629874],[8.644646607011492,46.79331696769809],[8.63273408997933,46.78714586867486],[8.627452124880163,46.78789844172647],[8.626103538046333,46.790306675491635],[8.61362910983341,46.79422005536002],[8.589691693532934,46.78970461705035],[8.584184963961464,46.78398506185808],[8.576880118611554,46.78526443604583],[8.57260959363776,46.783608775332276],[8.560697076605598,46.78413557646841],[8.557325609521024,46.782254143839374],[8.552942702311078,46.78398506185808],[8.548110266156522,46.78029745390518],[8.537771100430495,46.77766344822454],[8.53439963334592,46.77879230780196],[8.529679579427517,46.77796447744518],[8.518553738048423,46.78187785731357]]]}},{"type":"Feature","id":1207,"properties":{"bfs":1207,"name":"Flüelen"},"geometry":{"type":"Polygon","coordinates":[[[8.612392905235733,46.90244006018199],[8.61452816772263,46.89958028258586],[8.618911074932576,46.899956569111666],[8.62273207096176,46.901235943299405],[8.62228254201715,46.903267890538764],[8.625204480157114,46.903493662454245],[8.626103538046333,46.90672972657618],[8.622394924253303,46.91222350985296],[8.624417804504047,46.91899666731747],[8.62183301307254,46.92268427527038],[8.612842434180344,46.92742548549554],[8.611830994054971,46.930435777701994],[8.623293982142522,46.927576000105866],[8.63003691631167,46.932693496856835],[8.641499904399222,46.933145040687805],[8.647456162915303,46.9294574327349],[8.667010672005832,46.92561931017167],[8.67105643250732,46.92185644491361],[8.684092771901007,46.92080284264134],[8.683980389664855,46.91899666731747],[8.680047011399518,46.916814205467794],[8.679822246927213,46.911546194106506],[8.675326957481115,46.90356891975941],[8.668359258839661,46.897924621872306],[8.659818208892073,46.90161222982521],[8.656221977335194,46.91004104800328],[8.649254278693743,46.911019392970374],[8.648018074096065,46.909740018782635],[8.641837051107679,46.910191562613605],[8.64138752216307,46.90499880855747],[8.634644587993922,46.90274108940263],[8.6337455301047,46.89912873875489],[8.627452124880163,46.89822565109295],[8.62318159990637,46.894839072360696],[8.616438665737222,46.89551638810715],[8.612392905235733,46.90244006018199]]]}},{"type":"Feature","id":1208,"properties":{"bfs":1208,"name":"Göschenen"},"geometry":{"type":"Polygon","coordinates":[[[8.411565849231273,46.654391982370306],[8.40954296898053,46.666884695027086],[8.403586710464449,46.66981972992838],[8.398979038782198,46.676216600867086],[8.398529509837587,46.68554850670709],[8.401226683505246,46.694278354105805],[8.42954700701567,46.68773096855677],[8.442021435228593,46.68682788089483],[8.453596805552298,46.690289716932256],[8.45606921474765,46.69864327780516],[8.453147276607687,46.70556694988],[8.454833010149974,46.71196382081871],[8.454720627913822,46.71203907812387],[8.466633144945984,46.71738234679032],[8.47236463898976,46.71753286140065],[8.479781866575822,46.71512462763548],[8.487761005342648,46.718360691757425],[8.506641221016261,46.69924533624645],[8.523610938675283,46.69217114956128],[8.527319552468315,46.68652685167419],[8.547323590503455,46.68283924372128],[8.565192366051697,46.684494904434835],[8.57216006469315,46.67982895151483],[8.579689674515365,46.67749597505483],[8.593175542853661,46.68058152456644],[8.604750913177366,46.67809803349612],[8.618461545987966,46.67960317959935],[8.636555086008514,46.68457016173999],[8.641499904399222,46.68012998073548],[8.643073255705357,46.675539285120635],[8.639252259676173,46.66921767148709],[8.6313855031455,46.66650840850128],[8.621608248600236,46.65875690606966],[8.603627090815841,46.652360035130954],[8.601154681620486,46.650177573281276],[8.592388867200594,46.65010231597611],[8.587331666573732,46.651908491299984],[8.579352527806908,46.649500257534825],[8.570474331150862,46.65108066094321],[8.565529512760154,46.64618893610773],[8.552380791130314,46.64408173156321],[8.547773119448063,46.64069515283095],[8.533837722165158,46.63723331679353],[8.528106228121382,46.63324467961998],[8.51338415518541,46.633620966145784],[8.503269753931686,46.62647152215546],[8.495515379637167,46.62519214796772],[8.484052391549616,46.61992413660643],[8.46921793637749,46.626546779460625],[8.455619685803041,46.6217303119303],[8.439773790505544,46.62105299618385],[8.423365984027283,46.628503469394815],[8.419882134706556,46.63715805948837],[8.423028837318826,46.64897345639869],[8.419432605761948,46.65341363740321],[8.411565849231273,46.654391982370306]]]}},{"type":"Feature","id":1209,"properties":{"bfs":1209,"name":"Gurtnellen"},"geometry":{"type":"Polygon","coordinates":[[[8.687801385694039,46.69585875751419],[8.67959748245491,46.696235044039994],[8.675551721953418,46.693601038359354],[8.674765046300353,46.67809803349612],[8.667684965422747,46.67591557164644],[8.66375158715741,46.672453735609025],[8.656783888515957,46.673281565965794],[8.651164776708335,46.676442372782574],[8.645208518192254,46.67681865930838],[8.643073255705357,46.675539285120635],[8.641499904399222,46.68012998073548],[8.636555086008514,46.68457016173999],[8.635768410355446,46.686451594369025],[8.637341761661581,46.69232166417161],[8.635206499174684,46.703158716114835],[8.63869034849541,46.70857724208645],[8.638128437314649,46.71414628266839],[8.616551047973374,46.71580194338194],[8.593512689562118,46.72453179078065],[8.585983079739904,46.73205752129678],[8.575981060722334,46.73845439223549],[8.574182944943894,46.74176571366259],[8.562495192384038,46.7444749766484],[8.55035791087957,46.749968759925174],[8.546312150378082,46.75425842631937],[8.54350259447427,46.76426764790582],[8.537883482666647,46.768632571605174],[8.539344451736628,46.77397584027163],[8.537771100430495,46.77766344822454],[8.548110266156522,46.78029745390518],[8.552942702311078,46.78398506185808],[8.557325609521024,46.782254143839374],[8.560697076605598,46.78413557646841],[8.57260959363776,46.783608775332276],[8.576880118611554,46.78526443604583],[8.584184963961464,46.78398506185808],[8.589691693532934,46.78970461705035],[8.61362910983341,46.79422005536002],[8.626103538046333,46.790306675491635],[8.627452124880163,46.78789844172647],[8.63273408997933,46.78714586867486],[8.644646607011492,46.79331696769809],[8.665662085172002,46.80061692629874],[8.669483081201186,46.78390980455292],[8.667123054241983,46.77728716169873],[8.67105643250732,46.76983668848776],[8.662178235851275,46.76629959514518],[8.657233417460567,46.76125735569937],[8.649029514221438,46.75915015115485],[8.646107576081473,46.75320482404711],[8.663639204921258,46.74929144417872],[8.682519420594872,46.73822862032001],[8.68690232780482,46.72972454483678],[8.680271775871823,46.72528436383226],[8.684991829790226,46.721220469353554],[8.686228034387904,46.7168555456542],[8.684654683081769,46.713845253447744],[8.69476908433549,46.706319522931615],[8.693645261973966,46.703158716114835],[8.687801385694039,46.69585875751419]]]}},{"type":"Feature","id":1210,"properties":{"bfs":1210,"name":"Hospental"},"geometry":{"type":"Polygon","coordinates":[[[8.615989136792612,46.579510963734805],[8.612055758527276,46.57627489961287],[8.59171457378368,46.57476975350964],[8.58261161265533,46.578607876072866],[8.574744856124656,46.58492948970642],[8.565866659468611,46.582596513246415],[8.549683617462655,46.58327382899287],[8.540355891862001,46.588015039218035],[8.527319552468315,46.60795822508578],[8.522936645258369,46.6090870846632],[8.51653085779768,46.61902104894449],[8.509001247975464,46.624740604136754],[8.503269753931686,46.62647152215546],[8.51338415518541,46.633620966145784],[8.528106228121382,46.63324467961998],[8.533837722165158,46.63723331679353],[8.547773119448063,46.64069515283095],[8.561596134494817,46.637910632539985],[8.575194385069267,46.631212732380625],[8.578453469917688,46.631438504296106],[8.580925879113042,46.6263962648503],[8.585983079739904,46.624289060305784],[8.59126504483907,46.61766641745159],[8.592838396145204,46.612699435310944],[8.612392905235733,46.59569128434448],[8.611156700638055,46.585757320063195],[8.615989136792612,46.579510963734805]]]}},{"type":"Feature","id":1211,"properties":{"bfs":1211,"name":"Isenthal"},"geometry":{"type":"Polygon","coordinates":[[[8.480793306701194,46.85856505127294],[8.476747546199705,46.856006302897455],[8.471915110045149,46.85615681750778],[8.469105554141336,46.862026887310364],[8.472477021225911,46.86932684591101],[8.46831887848827,46.877605149478754],[8.479781866575822,46.88422779233295],[8.473937990295894,46.89280712512134],[8.475061812657419,46.89468855775037],[8.468656025196728,46.89890296683941],[8.45966544630453,46.89958028258586],[8.465396940348306,46.90612766813489],[8.48236665800733,46.90996579069812],[8.48697432968958,46.919523468453605],[8.492143912552592,46.91982449767425],[8.4992239934302,46.91967398306393],[8.504393576293213,46.9158358605007],[8.51653085779768,46.91937295384328],[8.52113852947993,46.92411416406844],[8.532938664275939,46.92494199442522],[8.545188328016557,46.929156403514256],[8.55440367138106,46.92840383046264],[8.556426551631805,46.9238131348478],[8.566765717357832,46.921329643777476],[8.569125744317033,46.919071924622635],[8.581375408057653,46.924038906763286],[8.587556431046037,46.92449045059425],[8.589804075769088,46.91959872575877],[8.596996538882845,46.91869563809683],[8.593287925089813,46.915083287449086],[8.593737454034423,46.911019392970374],[8.590253604713697,46.912825568294245],[8.56901336208088,46.898978224144564],[8.568226686427813,46.88844220142198],[8.574520091652351,46.88550716652069],[8.579464910043061,46.88528139460521],[8.578902998862297,46.881217500126496],[8.574070562707742,46.873616512305205],[8.569125744317033,46.87286393925359],[8.560921841077903,46.86812272902843],[8.559685636480225,46.86187637270004],[8.554291289144906,46.855780530981974],[8.554178906908755,46.85051251962068],[8.541929243168136,46.842685759883906],[8.535860602415903,46.84170741491681],[8.531140548497499,46.8423094733581],[8.521700440660691,46.84787851394004],[8.515631799908459,46.84848057238133],[8.508102190086243,46.84674965436262],[8.498999228957894,46.85487744332004],[8.489446738884933,46.85480218601488],[8.480793306701194,46.85856505127294]]]}},{"type":"Feature","id":1212,"properties":{"bfs":1212,"name":"Realp"},"geometry":{"type":"Polygon","coordinates":[[[8.540355891862001,46.588015039218035],[8.537321571485885,46.586133606589],[8.532376753095177,46.585757320063195],[8.527656699176774,46.58297279977222],[8.525858583398334,46.57920993451416],[8.522374734077607,46.57853261876771],[8.522149969605302,46.568372882570934],[8.51439559531078,46.55979354978254],[8.52068900053532,46.5402266504406],[8.506641221016261,46.536463785182534],[8.484052391549616,46.53345349297608],[8.478770426450449,46.52886279736124],[8.474837048185114,46.52984114232834],[8.466183616001373,46.5369153290135],[8.458878770651463,46.534732867163825],[8.44651672467469,46.53819470320124],[8.442133817464745,46.54090396618705],[8.437076616837885,46.54128025271286],[8.434042296461769,46.544064773003825],[8.429996535960278,46.544967860665764],[8.427411744528772,46.54865546861867],[8.424377424152656,46.56137395319093],[8.420781192595776,46.56483578922835],[8.417971636691965,46.57236151974448],[8.411228702522816,46.57868313337803],[8.41134108475897,46.581768682889646],[8.40729532425748,46.58718720886126],[8.41134108475897,46.59787374619416],[8.409205822272073,46.60253969911417],[8.415836374205067,46.60682936550836],[8.421455486012691,46.61774167475675],[8.421455486012691,46.62684780868127],[8.423365984027283,46.628503469394815],[8.439773790505544,46.62105299618385],[8.455619685803041,46.6217303119303],[8.46921793637749,46.626546779460625],[8.484052391549616,46.61992413660643],[8.495515379637167,46.62519214796772],[8.503269753931686,46.62647152215546],[8.509001247975464,46.624740604136754],[8.51653085779768,46.61902104894449],[8.522936645258369,46.6090870846632],[8.527319552468315,46.60795822508578],[8.540355891862001,46.588015039218035]]]}},{"type":"Feature","id":1213,"properties":{"bfs":1213,"name":"Schattdorf"},"geometry":{"type":"Polygon","coordinates":[[[8.63228456103472,46.849082630822615],[8.636105557063903,46.862026887310364],[8.6337455301047,46.86488666490649],[8.637791290606192,46.86533820873746],[8.657233417460567,46.87376702691553],[8.668584023311967,46.86646706831488],[8.674877428536504,46.86458563568585],[8.679035571274145,46.8652629514323],[8.68476706531792,46.85909185240907],[8.688250914638648,46.859317624324554],[8.691734763959374,46.85525372984584],[8.691285235014764,46.852469209554876],[8.715559798023698,46.84885685890713],[8.71376168224526,46.845093993649066],[8.71522265131524,46.83937443845681],[8.713312153300649,46.83561157319874],[8.70791780596533,46.835762087809066],[8.706007307950738,46.832224994466486],[8.699376756017742,46.83230025177165],[8.692970968557052,46.83034356183745],[8.683193714011788,46.831999222551],[8.68420515413716,46.83448271362133],[8.681507980469501,46.83613837433487],[8.666223996352764,46.83756826313294],[8.658806768766702,46.84027752611875],[8.65779532864133,46.84343833293552],[8.651614305652943,46.843739362156164],[8.646781869498387,46.84614759592132],[8.64138752216307,46.84381461946133],[8.63913987744002,46.85051251962068],[8.63228456103472,46.849082630822615]]]}},{"type":"Feature","id":1214,"properties":{"bfs":1214,"name":"Seedorf"},"geometry":{"type":"MultiPolygon","coordinates":[[[[8.593737454034423,46.911019392970374],[8.593175542853661,46.90672972657618],[8.596322245465931,46.89920399606005],[8.595086040868253,46.89694627690521],[8.600368005967418,46.89085043518715],[8.605762353302737,46.8909256924923],[8.606211882247347,46.89340918356263],[8.613067198652647,46.89935451067037],[8.612392905235733,46.90244006018199],[8.616438665737222,46.89551638810715],[8.62542924462942,46.87926081019231],[8.620372044002558,46.877605149478754],[8.606436646719652,46.878131950614886],[8.595535569812863,46.868047471723266],[8.580588732404586,46.8596186535452],[8.571036242331624,46.851566121892944],[8.561371370022513,46.84900737351746],[8.554178906908755,46.85051251962068],[8.554291289144906,46.855780530981974],[8.559685636480225,46.86187637270004],[8.560921841077903,46.86812272902843],[8.569125744317033,46.87286393925359],[8.574070562707742,46.873616512305205],[8.578902998862297,46.881217500126496],[8.579464910043061,46.88528139460521],[8.574520091652351,46.88550716652069],[8.568226686427813,46.88844220142198],[8.56901336208088,46.898978224144564],[8.590253604713697,46.912825568294245],[8.593737454034423,46.911019392970374]]],[[[8.58587069750375,46.94496043759813],[8.5812630258215,46.938036765523286],[8.580588732404586,46.9308120642278],[8.588230724462953,46.92494199442522],[8.59722130335515,46.921103871861995],[8.596996538882845,46.91869563809683],[8.589804075769088,46.91959872575877],[8.587556431046037,46.92449045059425],[8.581375408057653,46.924038906763286],[8.569125744317033,46.919071924622635],[8.566765717357832,46.921329643777476],[8.556426551631805,46.9238131348478],[8.564630454870935,46.93209143841554],[8.564068543690173,46.93457492948587],[8.557887520701787,46.93886459588006],[8.570474331150862,46.93818728013361],[8.572946740346216,46.941573858865866],[8.58587069750375,46.94496043759813]]]]}},{"type":"Feature","id":1215,"properties":{"bfs":1215,"name":"Seelisberg"},"geometry":{"type":"Polygon","coordinates":[[[8.545188328016557,46.929156403514256],[8.548672177337284,46.93615533289425],[8.544963563544252,46.94067077120393],[8.557437991757176,46.94067077120393],[8.556763698340262,46.94255220383297],[8.558337049646397,46.94887381746651],[8.555977022687195,46.964301565024584],[8.561371370022513,46.96701082801039],[8.563394250273257,46.974085014695554],[8.569687655497795,46.97694479229168],[8.57541914954157,46.98514783855427],[8.590253604713697,46.98943750494846],[8.596434627702083,46.98717978579362],[8.597895596772064,46.98424475089233],[8.592950778381356,46.976794277681364],[8.595535569812863,46.96889226063942],[8.59452412968749,46.964301565024584],[8.591040280366764,46.960764471682005],[8.58587069750375,46.94496043759813],[8.572946740346216,46.941573858865866],[8.570474331150862,46.93818728013361],[8.557887520701787,46.93886459588006],[8.564068543690173,46.93457492948587],[8.564630454870935,46.93209143841554],[8.556426551631805,46.9238131348478],[8.55440367138106,46.92840383046264],[8.545188328016557,46.929156403514256]]]}},{"type":"Feature","id":1216,"properties":{"bfs":1216,"name":"Silenen"},"geometry":{"type":"Polygon","coordinates":[[[8.87233301745639,46.84336307563036],[8.874917808887897,46.84178267222197],[8.875704484540963,46.8362888889452],[8.881885507529349,46.82989201800648],[8.881098831876281,46.822366287490354],[8.876828306902489,46.817248790739384],[8.878176893736317,46.81416324122777],[8.874917808887897,46.80979831752841],[8.86098241160499,46.807013797237445],[8.853565184018928,46.80091795551938],[8.848620365628218,46.799412809416154],[8.849069894572828,46.79482211380132],[8.836033555179142,46.79647777451486],[8.828953474301537,46.79301593847744],[8.82771726970386,46.78925307321938],[8.830189678899213,46.78481289221486],[8.829290621009994,46.78014693929486],[8.835359261762228,46.76772948394324],[8.832662088094569,46.76562227939873],[8.826481065106183,46.76720268280711],[8.819738130937035,46.76351507485421],[8.820187659881645,46.76050478264776],[8.8158047526717,46.75666666008453],[8.815018077018632,46.75034504645098],[8.811646609934057,46.74628115197227],[8.814006636893259,46.73868016415098],[8.801195061971878,46.733035866263876],[8.793890216621968,46.73265957973807],[8.783213904187484,46.729649287531615],[8.774110943059133,46.740862626000656],[8.770739475974558,46.74206674288323],[8.77028994702995,46.745679093530974],[8.766693715473071,46.74590486544646],[8.74893732216098,46.737024503437425],[8.745565855076407,46.73017608866775],[8.75028590899481,46.72265035815162],[8.746802059674083,46.71843594906258],[8.736912422892667,46.714522569194195],[8.728708519653537,46.708727756696774],[8.71926841181673,46.70744838250903],[8.718256971691357,46.70398654647161],[8.710277832924533,46.700524710434195],[8.701399636268487,46.70481437682839],[8.693645261973966,46.703158716114835],[8.69476908433549,46.706319522931615],[8.684654683081769,46.713845253447744],[8.686228034387904,46.7168555456542],[8.684991829790226,46.721220469353554],[8.680271775871823,46.72528436383226],[8.68690232780482,46.72972454483678],[8.682519420594872,46.73822862032001],[8.663639204921258,46.74929144417872],[8.646107576081473,46.75320482404711],[8.649029514221438,46.75915015115485],[8.657233417460567,46.76125735569937],[8.662178235851275,46.76629959514518],[8.67105643250732,46.76983668848776],[8.667123054241983,46.77728716169873],[8.669483081201186,46.78390980455292],[8.665662085172002,46.80061692629874],[8.66240300032358,46.80513236460841],[8.661616324670513,46.81160449285228],[8.671393579215778,46.82183948635422],[8.678248895621078,46.8240219482039],[8.679822246927213,46.83087036297358],[8.683193714011788,46.831999222551],[8.692970968557052,46.83034356183745],[8.699376756017742,46.83230025177165],[8.706007307950738,46.832224994466486],[8.708479717146092,46.830418819142615],[8.707805423729177,46.825000293171],[8.712300713175276,46.82206525826971],[8.724550376915895,46.81845290762197],[8.737811480781886,46.81845290762197],[8.738710538671105,46.812808609734866],[8.7429810636449,46.8127333524297],[8.75714122540011,46.80784162759422],[8.781078641700585,46.81243232320906],[8.793777834385814,46.82296834593164],[8.79861027054037,46.82274257401616],[8.817490486213986,46.829741503396164],[8.83682023083221,46.82786007076713],[8.843001253820596,46.833052824823255],[8.846372720905169,46.839600210372296],[8.85098039258742,46.842158958747774],[8.854689006380452,46.84388987676649],[8.857723326756568,46.84193318683229],[8.865927229995698,46.84419090598713],[8.87233301745639,46.84336307563036]]]}},{"type":"Feature","id":1217,"properties":{"bfs":1217,"name":"Sisikon"},"geometry":{"type":"Polygon","coordinates":[[[8.621945395308693,46.953840799607164],[8.629475005130908,46.95120679392652],[8.637678908370038,46.95105627931619],[8.671168814743474,46.945411981429096],[8.693982408682423,46.94819650172006],[8.697803404711607,46.944283121851676],[8.701399636268487,46.93434915757038],[8.698140551420066,46.93005949117619],[8.698702462600828,46.927726514716184],[8.708929246090701,46.91846986618135],[8.706007307950738,46.91591111780586],[8.683980389664855,46.91899666731747],[8.684092771901007,46.92080284264134],[8.67105643250732,46.92185644491361],[8.667010672005832,46.92561931017167],[8.647456162915303,46.9294574327349],[8.641499904399222,46.933145040687805],[8.63003691631167,46.932693496856835],[8.623293982142522,46.927576000105866],[8.611830994054971,46.930435777701994],[8.616888194681831,46.942025402696835],[8.621271101891779,46.94623981178587],[8.620709190711015,46.95210988158845],[8.621945395308693,46.953840799607164]]]}},{"type":"Feature","id":1218,"properties":{"bfs":1218,"name":"Spiringen"},"geometry":{"type":"MultiPolygon","coordinates":[[[[8.715559798023698,46.84885685890713],[8.717695060510595,46.85096406345165],[8.715896944732155,46.858038250136815],[8.702186311921555,46.87173507967617],[8.707243512548414,46.87482062918779],[8.708929246090701,46.879185552887144],[8.71376168224526,46.88069069899037],[8.717807442746746,46.888517458727144],[8.717133149329833,46.91365339865102],[8.725561817041267,46.9138791705665],[8.72522467033281,46.909740018782635],[8.729270430834298,46.904622522031666],[8.73578860053114,46.90101017138392],[8.74343059258951,46.8998813118065],[8.756691696455501,46.894161756614245],[8.76579465758385,46.8952153588865],[8.770627093738407,46.898376165703276],[8.779055761449841,46.898978224144564],[8.782314846298263,46.89649473307424],[8.778156703560622,46.890323634051015],[8.763771777333107,46.878131950614886],[8.756354549747044,46.87399279883101],[8.756916460927805,46.86864953016456],[8.754331669496299,46.86601552448391],[8.756691696455501,46.863983577244554],[8.749274468869437,46.85254446686004],[8.74163247681107,46.852243437639395],[8.735114307114227,46.848405315076164],[8.730956164376586,46.843588847545846],[8.722415114428998,46.84298678910455],[8.71376168224526,46.845093993649066],[8.715559798023698,46.84885685890713]]],[[[8.854351859671993,46.88671128340327],[8.862555762911125,46.89295763973166],[8.862443380674971,46.895892674632954],[8.875929249013268,46.89649473307424],[8.887504619336973,46.90341840514908],[8.895933287048408,46.904170978200696],[8.903013367926013,46.90913796034134],[8.908632479733637,46.90891218842586],[8.912565857998972,46.91207299524263],[8.9366156565356,46.92117912916715],[8.944707177538579,46.90763281423812],[8.949764378165439,46.90289160401296],[8.954484432083843,46.90206377365618],[8.958417810349179,46.88911951716843],[8.9571816057515,46.877153605647784],[8.942684297287833,46.872036108896815],[8.934705158521009,46.86676809753553],[8.924141228322677,46.86458563568585],[8.91885926322351,46.86187637270004],[8.909194390914399,46.86180111539488],[8.896607580465322,46.85096406345165],[8.87233301745639,46.84336307563036],[8.865927229995698,46.84419090598713],[8.857723326756568,46.84193318683229],[8.854689006380452,46.84388987676649],[8.85098039258742,46.842158958747774],[8.851879450476641,46.84682491166778],[8.849294659045134,46.8539743556581],[8.858959531354245,46.859994940071005],[8.855925210978128,46.875196915713595],[8.849294659045134,46.87865875175101],[8.86008335371577,46.88234635970392],[8.854351859671993,46.88671128340327]]]]}},{"type":"Feature","id":1219,"properties":{"bfs":1219,"name":"Unterschächen"},"geometry":{"type":"Polygon","coordinates":[[[8.828728709829232,46.923737877542635],[8.8295153854823,46.91989975497941],[8.837494524249124,46.90936373225683],[8.843338400529053,46.91064310644457],[8.84817083668361,46.914857515533605],[8.849856570225896,46.91402968517683],[8.848957512336677,46.8928823824265],[8.854351859671993,46.88671128340327],[8.86008335371577,46.88234635970392],[8.849294659045134,46.87865875175101],[8.855925210978128,46.875196915713595],[8.858959531354245,46.859994940071005],[8.849294659045134,46.8539743556581],[8.851879450476641,46.84682491166778],[8.85098039258742,46.842158958747774],[8.846372720905169,46.839600210372296],[8.843001253820596,46.833052824823255],[8.83682023083221,46.82786007076713],[8.817490486213986,46.829741503396164],[8.79861027054037,46.82274257401616],[8.793777834385814,46.82296834593164],[8.781078641700585,46.81243232320906],[8.75714122540011,46.80784162759422],[8.7429810636449,46.8127333524297],[8.738710538671105,46.812808609734866],[8.737811480781886,46.81845290762197],[8.724550376915895,46.81845290762197],[8.712300713175276,46.82206525826971],[8.707805423729177,46.825000293171],[8.708479717146092,46.830418819142615],[8.706007307950738,46.832224994466486],[8.70791780596533,46.835762087809066],[8.713312153300649,46.83561157319874],[8.71522265131524,46.83937443845681],[8.71376168224526,46.845093993649066],[8.722415114428998,46.84298678910455],[8.730956164376586,46.843588847545846],[8.735114307114227,46.848405315076164],[8.74163247681107,46.852243437639395],[8.749274468869437,46.85254446686004],[8.756691696455501,46.863983577244554],[8.754331669496299,46.86601552448391],[8.756916460927805,46.86864953016456],[8.756354549747044,46.87399279883101],[8.763771777333107,46.878131950614886],[8.778156703560622,46.890323634051015],[8.782314846298263,46.89649473307424],[8.779055761449841,46.898978224144564],[8.781191023936739,46.90356891975941],[8.78995683835663,46.90733178501747],[8.790855896245851,46.911696708716825],[8.809623729683313,46.91207299524263],[8.810522787572532,46.9144812290078],[8.828728709829232,46.923737877542635]]]}},{"type":"Feature","id":1220,"properties":{"bfs":1220,"name":"Wassen"},"geometry":{"type":"Polygon","coordinates":[[[8.448427222689283,46.71557617146645],[8.44820245821698,46.72867094256452],[8.450674867412333,46.731229690940005],[8.442470964173204,46.738153363014845],[8.441571906283983,46.74455023395356],[8.444718608896252,46.74876464304259],[8.440223319450153,46.75358111057292],[8.444718608896252,46.75523677128646],[8.448539604925436,46.7594511803755],[8.449438662814655,46.76471919173679],[8.461126415374512,46.7701377177084],[8.467644585071355,46.770890290760015],[8.475398959365876,46.76900885813098],[8.492593441497203,46.773825325661306],[8.499336375666351,46.777588190919374],[8.50473072300167,46.77683561786776],[8.509226012447769,46.78089951234647],[8.514058448602324,46.77999642468453],[8.518553738048423,46.78187785731357],[8.529679579427517,46.77796447744518],[8.53439963334592,46.77879230780196],[8.537771100430495,46.77766344822454],[8.539344451736628,46.77397584027163],[8.537883482666647,46.768632571605174],[8.54350259447427,46.76426764790582],[8.546312150378082,46.75425842631937],[8.55035791087957,46.749968759925174],[8.562495192384038,46.7444749766484],[8.574182944943894,46.74176571366259],[8.575981060722334,46.73845439223549],[8.585983079739904,46.73205752129678],[8.593512689562118,46.72453179078065],[8.616551047973374,46.71580194338194],[8.638128437314649,46.71414628266839],[8.63869034849541,46.70857724208645],[8.635206499174684,46.703158716114835],[8.637341761661581,46.69232166417161],[8.635768410355446,46.686451594369025],[8.636555086008514,46.68457016173999],[8.618461545987966,46.67960317959935],[8.604750913177366,46.67809803349612],[8.593175542853661,46.68058152456644],[8.579689674515365,46.67749597505483],[8.57216006469315,46.67982895151483],[8.565192366051697,46.684494904434835],[8.547323590503455,46.68283924372128],[8.527319552468315,46.68652685167419],[8.523610938675283,46.69217114956128],[8.506641221016261,46.69924533624645],[8.487761005342648,46.718360691757425],[8.479781866575822,46.71512462763548],[8.47236463898976,46.71753286140065],[8.466633144945984,46.71738234679032],[8.454720627913822,46.71203907812387],[8.453933952260755,46.71249062195484],[8.448427222689283,46.71557617146645]]]}}]}