{"type":"FeatureCollection","features":[{"type":"Feature","properties":{"id":"urnersee","name":"Urnersee","quelle":"Vierwaldstättersee (swiss-maps) ∩ Kanton Uri"},"geometry":{"type":"Polygon","coordinates":[[[8.57216006469315,46.991469452187815],[8.57541914954157,46.98514783855427],[8.590253604713697,46.98943750494846],[8.596434627702083,46.98717978579362],[8.597895596772064,46.98424475089233],[8.592950778381356,46.976794277681364],[8.595535569812863,46.96889226063942],[8.59452412968749,46.964301565024584],[8.591040280366764,46.960764471682005],[8.58587069750375,46.94496043759813],[8.5812630258215,46.938036765523286],[8.580588732404586,46.9308120642278],[8.588230724462953,46.92494199442522],[8.59722130335515,46.921103871861995],[8.596996538882845,46.91869563809683],[8.593287925089813,46.915083287449086],[8.593737454034423,46.911019392970374],[8.593175542853661,46.90672972657618],[8.596322245465931,46.89920399606005],[8.595086040868253,46.89694627690521],[8.600368005967418,46.89085043518715],[8.605762353302737,46.8909256924923],[8.606211882247347,46.89340918356263],[8.613067198652647,46.89935451067037],[8.612392905235733,46.90244006018199],[8.61452816772263,46.89958028258586],[8.618911074932576,46.899956569111666],[8.62273207096176,46.901235943299405],[8.62228254201715,46.903267890538764],[8.625204480157114,46.903493662454245],[8.626103538046333,46.90672972657618],[8.622394924253303,46.91222350985296],[8.624417804504047,46.91899666731747],[8.62183301307254,46.92268427527038],[8.612842434180344,46.92742548549554],[8.611830994054971,46.930435777701994],[8.616888194681831,46.942025402696835],[8.621271101891779,46.94623981178587],[8.620709190711015,46.95210988158845],[8.621945395308693,46.953840799607164],[8.605537588830433,46.95331399847103],[8.604638530941212,46.96987060560652],[8.60227850398201,46.976568505765876],[8.605312824358128,46.98364269245104],[8.604301384232755,46.988158130760716],[8.598232743480523,46.99154470949298],[8.583510670544548,46.99470551630975],[8.57216006469315,46.991469452187815]]]}}]}