{"type":"FeatureCollection","features":[{"type":"Feature","id":9179,"properties":{"id":9179,"name":"Vierwaldstättersee"},"geometry":{"type":"Polygon","coordinates":[[[8.427973655709534,47.00215598952072],[8.427861273473383,47.00358587831879],[8.398079980892978,47.00539205364266],[8.38583031715236,47.00426319406524],[8.369197746201793,47.00478999520137],[8.363578634394171,46.99741477929556],[8.356498553516566,46.99432922978394],[8.352340410778924,46.98966327686394],[8.352677557487382,46.98710452848846],[8.347395592388215,46.983416920535554],[8.334246870758378,46.98063240024459],[8.333797341813767,46.97799839456394],[8.338629777968324,46.9734076989491],[8.336831662189883,46.97039740674265],[8.330425874729194,46.967387114536194],[8.307275134081785,46.9570768637291],[8.297722644008825,46.9524109108091],[8.294014030215793,46.95429234343813],[8.291766385492744,46.954518115353615],[8.292328296673507,46.957377892949744],[8.290530180895068,46.95700160642394],[8.29154162102044,46.95489440187942],[8.289181594061237,46.954518115353615],[8.28929397629739,46.95722737833942],[8.286372038157426,46.95504491648974],[8.279966250696734,46.95685109181361],[8.283562482253615,46.960312927851035],[8.29513785257732,46.96490362346587],[8.295812145994233,46.96753762914652],[8.308960867624071,46.97084895057362],[8.312107570236341,46.970322149437486],[8.33121255038226,46.97498810235749],[8.332785901688395,46.98025611371878],[8.329077287895363,46.98153548790653],[8.323570558323892,46.980331371023944],[8.313343774834017,46.98093342946523],[8.313793303778628,46.98785710154007],[8.317951446516268,46.99109316566201],[8.313680921542476,46.999747755755564],[8.306825605137174,47.00825183123879],[8.308061809734852,47.010208521172984],[8.316940006390897,47.013143556074276],[8.32031147347547,47.010660065003954],[8.322446735962368,47.005316796337496],[8.329526816839973,47.00177970299492],[8.342675538469813,47.00682194244072],[8.343237449650575,47.01540127522912],[8.34031551151061,47.01788476629944],[8.343686978595183,47.019540427012984],[8.338405013496018,47.02330329227105],[8.337393573370646,47.02676512830847],[8.34076504045522,47.03210839697493],[8.334808781939138,47.03684960720009],[8.331100168146108,47.0412897882046],[8.326829643172314,47.043622764664605],[8.310421836694054,47.054760845828476],[8.321210531364692,47.0562659919317],[8.333684959577614,47.05558867618525],[8.336269751009121,47.05129900979106],[8.341888862816745,47.05017015021364],[8.348407032513588,47.04610625573493],[8.354588055501974,47.03978464210138],[8.35402614432121,47.035645490317506],[8.363691016630323,47.03474240265557],[8.372456831050215,47.04144030281493],[8.377064502732466,47.042945448918154],[8.381672174414717,47.04768665914332],[8.395832336169928,47.05513713235428],[8.401563830213705,47.061007202156866],[8.406508648604413,47.06477006741493],[8.410666791342054,47.06604944160267],[8.414375405135086,47.06477006741493],[8.419657370234251,47.067479330400744],[8.43640232342097,47.08343387909494],[8.440672848394764,47.08004730036268],[8.436065176712512,47.07846689695429],[8.431457505030261,47.06672675734913],[8.431569887266413,47.06364120783751],[8.427861273473383,47.06048040102074],[8.428760331362602,47.05468558852332],[8.424040277444199,47.050997980570415],[8.419432605761948,47.0455794545988],[8.402462888102924,47.03684960720009],[8.396731394059149,47.03037747895621],[8.398079980892978,47.02819501710653],[8.402800034811381,47.027592958665245],[8.410442026869749,47.03135582392331],[8.422017397193454,47.030001192430404],[8.427074597820315,47.032710455416215],[8.436964234601732,47.033387771162666],[8.446853871383148,47.030979537397506],[8.45550730356689,47.02503421028976],[8.468656025196728,47.0249589529846],[8.469555083085947,47.02285174844008],[8.474499901476655,47.01818579552008],[8.48292856918809,47.01517550331363],[8.486412418508817,47.00411267945492],[8.477758986325078,47.00027455689169],[8.47472466594896,46.99688797815943],[8.481917129062719,46.99478077361491],[8.485513360619597,46.99568386127685],[8.498100171068675,46.99154470949298],[8.518441355812271,46.99523231744588],[8.524172849856047,46.99380242864782],[8.525409054453723,46.99207151062911],[8.539119687264325,46.98928699033814],[8.558898960827158,46.992598311765235],[8.574182944943894,47.000425071502015],[8.587331666573732,47.00253227604653],[8.592950778381356,46.99673746354911],[8.609246202623464,46.99395294325814],[8.612617669708037,46.98921173303298],[8.612954816416496,46.98409423628201],[8.611718611818818,46.97370872816975],[8.615764372320307,46.960538699766516],[8.621945395308693,46.953840799607164],[8.620709190711015,46.95210988158845],[8.621271101891779,46.94623981178587],[8.616888194681831,46.942025402696835],[8.611830994054971,46.930435777701994],[8.612842434180344,46.92742548549554],[8.62183301307254,46.92268427527038],[8.624417804504047,46.91899666731747],[8.622394924253303,46.91222350985296],[8.626103538046333,46.90672972657618],[8.625204480157114,46.903493662454245],[8.62228254201715,46.903267890538764],[8.62273207096176,46.901235943299405],[8.618911074932576,46.899956569111666],[8.61452816772263,46.89958028258586],[8.612392905235733,46.90244006018199],[8.613067198652647,46.89935451067037],[8.606211882247347,46.89340918356263],[8.605762353302737,46.8909256924923],[8.600368005967418,46.89085043518715],[8.595086040868253,46.89694627690521],[8.596322245465931,46.89920399606005],[8.593175542853661,46.90672972657618],[8.593737454034423,46.911019392970374],[8.593287925089813,46.915083287449086],[8.596996538882845,46.91869563809683],[8.59722130335515,46.921103871861995],[8.588230724462953,46.92494199442522],[8.580588732404586,46.9308120642278],[8.5812630258215,46.938036765523286],[8.58587069750375,46.94496043759813],[8.591040280366764,46.960764471682005],[8.59452412968749,46.964301565024584],[8.595535569812863,46.96889226063942],[8.592950778381356,46.976794277681364],[8.597895596772064,46.98424475089233],[8.596434627702083,46.98717978579362],[8.590253604713697,46.98943750494846],[8.57541914954157,46.98514783855427],[8.55024552864342,46.974310786611035],[8.526532876815248,46.96994586291168],[8.508214572322396,46.963850021193615],[8.496976348707149,46.96332322005749],[8.478882808686603,46.96573145382265],[8.467195056126744,46.9734076989491],[8.453372041079993,46.97242935398201],[8.449101516106198,46.97333244164394],[8.442133817464745,46.97596644732459],[8.42819842018184,46.976342733850394],[8.426512686639553,46.98018085641362],[8.420106899178862,46.98221280365298],[8.418533547872727,46.98424475089233],[8.419882134706556,46.98853441728652],[8.44100999510322,46.9950065455304],[8.4583168594707,46.99621066241298],[8.464048353514476,46.999070440009106],[8.45921591735992,47.001704445689754],[8.451686307537706,47.002833305267174],[8.442021435228593,47.00193021760524],[8.432131798447175,47.00381165023427],[8.427973655709534,47.00215598952072]]]}}]}